[{"OBJECT_NAME":"STARLINK-1559","OBJECT_ID":"2020-055BC","EPOCH":"2026-03-09T05:36:23.522976","MEAN_MOTION":15.29461733,"ECCENTRICITY":0.0004229,"INCLINATION":53.0254,"RA_OF_ASC_NODE":76.0659,"ARG_OF_PERICENTER":33.971,"MEAN_ANOMALY":326.1559,"EPHEMERIS_TYPE":0,"CLASSIFICATION_TYPE":"U","NORAD_CAT_ID":46077,"ELEMENT_SET_NO":999,"REV_AT_EPOCH":30951,"BSTAR":0.0014778793,"MEAN_MOTION_DOT":0.00042685,"MEAN_MOTION_DDOT":0},{"OBJECT_NAME":"STARLINK-33622","OBJECT_ID":"2025-035Q","EPOCH":"2026-03-09T13:32:34.901376","MEAN_MOTION":15.27571395,"ECCENTRICITY":0.0001645,"INCLINATION":42.9986,"RA_OF_ASC_NODE":147.514,"ARG_OF_PERICENTER":287.0242,"MEAN_ANOMALY":73.0429,"EPHEMERIS_TYPE":0,"CLASSIFICATION_TYPE":"U","NORAD_CAT_ID":63066,"ELEMENT_SET_NO":999,"REV_AT_EPOCH":5971,"BSTAR":0.0011273,"MEAN_MOTION_DOT":0.00030881,"MEAN_MOTION_DDOT":0}]
